[{"OBJECT_NAME":"OBJECT C","OBJECT_ID":"2022-023C","EPOCH":"2026-03-09T22:57:27.819936","MEAN_MOTION":15.18202357,"ECCENTRICITY":0.00963055,"INCLINATION":63.4862,"RA_OF_ASC_NODE":247.9876,"ARG_OF_PERICENTER":349.5574,"MEAN_ANOMALY":10.3536,"EPHEMERIS_TYPE":0,"CLASSIFICATION_TYPE":"U","NORAD_CAT_ID":51948,"ELEMENT_SET_NO":999,"REV_AT_EPOCH":22265,"BSTAR":0.00022353772,"MEAN_MOTION_DOT":4.943e-5,"MEAN_MOTION_DDOT":0},{"OBJECT_NAME":"SITRO-AIS-60","OBJECT_ID":"2025-313N","EPOCH":"2026-03-09T21:17:25.286208","MEAN_MOTION":15.21085729,"ECCENTRICITY":0.00151729,"INCLINATION":97.4006,"RA_OF_ASC_NODE":145.1066,"ARG_OF_PERICENTER":358.9487,"MEAN_ANOMALY":1.1715,"EPHEMERIS_TYPE":0,"CLASSIFICATION_TYPE":"U","NORAD_CAT_ID":67260,"ELEMENT_SET_NO":999,"REV_AT_EPOCH":1084,"BSTAR":0.00042372685,"MEAN_MOTION_DOT":9.383e-5,"MEAN_MOTION_DDOT":0}]
